IRIDIUM 144             
1 43249U 18030A   23315.79735695  .00000233  00000+0  76191-4 0  9994
2 43249  86.3947 326.7895 0002310  92.7689 267.3771 14.34212945294203
IRIDIUM 149             
1 43250U 18030B   23315.73393046  .00000088  00000+0  24461-4 0  9991
2 43250  86.3947 326.7934 0002455  94.3663 265.7813 14.34212070294218
IRIDIUM 157             
1 43251U 18030C   23316.45063846  .00000271  00000+0  89549-4 0  9996
2 43251  86.3945 326.5259 0002039  88.8297 271.3133 14.34216397294296
IRIDIUM 140             
1 43252U 18030D   23315.77198417  .00000307  00000+0  10268-3 0  9995
2 43252  86.3948 326.8245 0002279 100.2416 259.9037 14.34214715294259
IRIDIUM 145             
1 43253U 18030E   23316.45698693  .00000198  00000+0  63674-4 0  9991
2 43253  86.3946 326.5123 0002537  95.0544 265.0942 14.34212159294286
IRIDIUM 146             
1 43254U 18030F   23315.94957451  .00000062  00000+0  15030-4 0  9998
2 43254  86.3947 326.7401 0002547  93.0203 267.1284 14.34215641294225
IRIDIUM 148             
1 43255U 18030G   23315.77833082  .00000265  00000+0  87691-4 0  9990
2 43255  86.3949 326.8406 0002498  87.4317 272.7165 14.34212997294234
IRIDIUM 142             
1 43256U 18030H   23316.44430163  .00000206  00000+0  66521-4 0  9993
2 43256  86.3943 326.4853 0002406  88.2600 271.8872 14.34212681294295
